STRIX-1                 
1 53815U 22113A   26196.18194341  .00014428  00000+0  35158-3 0  9999
2 53815  97.4479 258.7265 0005516 132.1767 227.9949 15.41002679211756
STRIX-3                 
1 59224U 24047A   26196.16395568  .00004555  00000+0  21566-3 0  9997
2 59224  97.6634 172.2626 0011981 335.0376  25.0278 15.19809532128998
STRIX-4                 
1 60352U 24137A   26196.17174028  .00010487  00000+0  32589-3 0  9996
2 60352  43.0152 125.6979 0016106 131.6697 228.5538 15.33312439108319
STRIX-2                 
1 62406U 24248A   26196.18785194  .00002304  00000+0  14880-3 0  9997
2 62406  97.6298 151.6727 0013669 235.5270 124.4668 15.09190939 85818
STRIX-5                 
1 65971U 25229A   26196.18394155  .00001657  00000+0  12793-3 0  9991
2 65971  41.9273 132.1291 0037867 237.4358 122.2808 15.04588404 41195
STRIX-6                 
1 68291U 26056A   26196.03611520  .00001005  00000+0  10018-3 0  9995
2 68291  50.2812 218.1344 0016624 350.4651   9.5980 15.00327512 17456
STRIX-7                 
1 69177U 26112A   26196.04861799  .00001976  00000+0  16680-3 0  9996
2 69177  44.9081  46.0970 0024707 206.9387 153.0203 15.01608072  8067
STRIX-8                 
1 69701U 26146A   26195.95332838  .00002416  00000+0  18330-3 0  9996
2 69701  41.9903  14.4328 0007187  20.8429 339.2690 15.04433217  2746
