{"fetched_at":"2026-07-15T17:47:35.252Z","source":"https://celestrak.org/NORAD/elements/gp.php?NAME=STRIX&FORMAT=JSON","constellation":"synspective","records":[{"OBJECT_NAME":"STRIX-1","OBJECT_ID":"2022-113A","EPOCH":"2026-07-15T04:21:59.910624","CLASSIFICATION_TYPE":"U","MEAN_MOTION":15.41002679,"ECCENTRICITY":0.0005516,"INCLINATION":97.4479,"RA_OF_ASC_NODE":258.7265,"ARG_OF_PERICENTER":132.1767,"MEAN_ANOMALY":227.9949,"EPHEMERIS_TYPE":0,"NORAD_CAT_ID":53815,"ELEMENT_SET_NO":999,"REV_AT_EPOCH":21175,"BSTAR":0.00035158,"MEAN_MOTION_DOT":0.00014428,"MEAN_MOTION_DDOT":0},{"OBJECT_NAME":"STRIX-3","OBJECT_ID":"2024-047A","EPOCH":"2026-07-15T03:56:05.770752","CLASSIFICATION_TYPE":"U","MEAN_MOTION":15.19809532,"ECCENTRICITY":0.0011981,"INCLINATION":97.6634,"RA_OF_ASC_NODE":172.2626,"ARG_OF_PERICENTER":335.0376,"MEAN_ANOMALY":25.0278,"EPHEMERIS_TYPE":0,"NORAD_CAT_ID":59224,"ELEMENT_SET_NO":999,"REV_AT_EPOCH":12899,"BSTAR":0.00021566,"MEAN_MOTION_DOT":0.00004555,"MEAN_MOTION_DDOT":0},{"OBJECT_NAME":"STRIX-4","OBJECT_ID":"2024-137A","EPOCH":"2026-07-15T04:07:18.360192","CLASSIFICATION_TYPE":"U","MEAN_MOTION":15.33312439,"ECCENTRICITY":0.0016106,"INCLINATION":43.0152,"RA_OF_ASC_NODE":125.6979,"ARG_OF_PERICENTER":131.6697,"MEAN_ANOMALY":228.5538,"EPHEMERIS_TYPE":0,"NORAD_CAT_ID":60352,"ELEMENT_SET_NO":999,"REV_AT_EPOCH":10831,"BSTAR":0.00032589,"MEAN_MOTION_DOT":0.00010487,"MEAN_MOTION_DDOT":0},{"OBJECT_NAME":"STRIX-2","OBJECT_ID":"2024-248A","EPOCH":"2026-07-15T04:30:30.407616","CLASSIFICATION_TYPE":"U","MEAN_MOTION":15.09190939,"ECCENTRICITY":0.0013669,"INCLINATION":97.6298,"RA_OF_ASC_NODE":151.6727,"ARG_OF_PERICENTER":235.527,"MEAN_ANOMALY":124.4668,"EPHEMERIS_TYPE":0,"NORAD_CAT_ID":62406,"ELEMENT_SET_NO":999,"REV_AT_EPOCH":8581,"BSTAR":0.0001488,"MEAN_MOTION_DOT":0.00002304,"MEAN_MOTION_DDOT":0},{"OBJECT_NAME":"STRIX-5","OBJECT_ID":"2025-229A","EPOCH":"2026-07-15T04:24:52.549920","CLASSIFICATION_TYPE":"U","MEAN_MOTION":15.04588404,"ECCENTRICITY":0.0037867,"INCLINATION":41.9273,"RA_OF_ASC_NODE":132.1291,"ARG_OF_PERICENTER":237.4358,"MEAN_ANOMALY":122.2808,"EPHEMERIS_TYPE":0,"NORAD_CAT_ID":65971,"ELEMENT_SET_NO":999,"REV_AT_EPOCH":4119,"BSTAR":0.00012793,"MEAN_MOTION_DOT":0.00001657,"MEAN_MOTION_DDOT":0},{"OBJECT_NAME":"STRIX-6","OBJECT_ID":"2026-056A","EPOCH":"2026-07-15T00:52:00.353280","CLASSIFICATION_TYPE":"U","MEAN_MOTION":15.00327512,"ECCENTRICITY":0.0016624,"INCLINATION":50.2812,"RA_OF_ASC_NODE":218.1344,"ARG_OF_PERICENTER":350.4651,"MEAN_ANOMALY":9.598,"EPHEMERIS_TYPE":0,"NORAD_CAT_ID":68291,"ELEMENT_SET_NO":999,"REV_AT_EPOCH":1745,"BSTAR":0.00010018,"MEAN_MOTION_DOT":0.00001005,"MEAN_MOTION_DDOT":0},{"OBJECT_NAME":"STRIX-7","OBJECT_ID":"2026-112A","EPOCH":"2026-07-15T01:10:00.594336","CLASSIFICATION_TYPE":"U","MEAN_MOTION":15.01608072,"ECCENTRICITY":0.0024707,"INCLINATION":44.9081,"RA_OF_ASC_NODE":46.097,"ARG_OF_PERICENTER":206.9387,"MEAN_ANOMALY":153.0203,"EPHEMERIS_TYPE":0,"NORAD_CAT_ID":69177,"ELEMENT_SET_NO":999,"REV_AT_EPOCH":806,"BSTAR":0.0001668,"MEAN_MOTION_DOT":0.00001976,"MEAN_MOTION_DDOT":0},{"OBJECT_NAME":"STRIX-8","OBJECT_ID":"2026-146A","EPOCH":"2026-07-14T22:52:47.572032","CLASSIFICATION_TYPE":"U","MEAN_MOTION":15.04433217,"ECCENTRICITY":0.0007187,"INCLINATION":41.9903,"RA_OF_ASC_NODE":14.4328,"ARG_OF_PERICENTER":20.8429,"MEAN_ANOMALY":339.269,"EPHEMERIS_TYPE":0,"NORAD_CAT_ID":69701,"ELEMENT_SET_NO":999,"REV_AT_EPOCH":274,"BSTAR":0.0001833,"MEAN_MOTION_DOT":0.00002416,"MEAN_MOTION_DDOT":0}]}
